{"type": "FeatureCollection", "features": [ {"type": "Feature", "properties": {"norad_id": 66432, "name": "STARLINK-35446", "group": "last-30-days", "lat": 26.67499690278173, "lon": 95.02631418412157, "alt_km": 440.4603717112923, "timestamp": "2025-12-10T04:57:28.364909+00:00", "meta": {"OBJECT_NAME": "STARLINK-35446", "OBJECT_ID": "2025-259L", "EPOCH": "2025-12-09T20:00:01.999008", "MEAN_MOTION": 15.40707772, "ECCENTRICITY": 0.0001152, "INCLINATION": 43.0004, "RA_OF_ASC_NODE": 64.5528, "ARG_OF_PERICENTER": 265.3597, "MEAN_ANOMALY": 223.3535, "EPHEMERIS_TYPE": 0, "CLASSIFICATION_TYPE": "U", "NORAD_CAT_ID": 66432, "ELEMENT_SET_NO": 999, "REV_AT_EPOCH": 581, "BSTAR": -0.0013683, "MEAN_MOTION_DOT": -0.00057049, "MEAN_MOTION_DDOT": 0}, "tle": {"line1": "1 66432U 25259L   25343.83335647 -.00057049  00000+0 -13683-2 0  9999", "line2": "2 66432  43.0004  64.5528 0001152 265.3597 223.3535 15.40707772  5817"}}, "geometry": {"type": "Point", "coordinates": [95.02631418412157, 26.67499690278173]}}, {"type": "Feature", "properties": {"norad_id": 66433, "name": "STARLINK-35457", "group": "last-30-days", "lat": 33.31206005047786, "lon": 107.22057701535637, "alt_km": 439.5177602583426, "timestamp": "2025-12-10T04:57:28.364919+00:00", "meta": {"OBJECT_NAME": "STARLINK-35457", "OBJECT_ID": "2025-259M", "EPOCH": "2025-12-09T20:00:01.999008", "MEAN_MOTION": 15.40777523, "ECCENTRICITY": 0.0001223, "INCLINATION": 43.0003, "RA_OF_ASC_NODE": 64.5237, "ARG_OF_PERICENTER": 272.216, "MEAN_ANOMALY": 228.9236, "EPHEMERIS_TYPE": 0, "CLASSIFICATION_TYPE": "U", "NORAD_CAT_ID": 66433, "ELEMENT_SET_NO": 999, "REV_AT_EPOCH": 581, "BSTAR": -0.0038921, "MEAN_MOTION_DOT": -0.00159933, "MEAN_MOTION_DDOT": 0}, "tle": {"line1": "1 66433U 25259M   25343.83335647 -.00159933  00000+0 -38921-2 0  9997", "line2": "2 66433  43.0003  64.5237 0001223 272.2160 228.9236 15.40777523  5816"}}, "geometry": {"type": "Point", "coordinates": [107.22057701535637, 33.31206005047786]}}, {"type": "Feature", "properties": {"norad_id": 66434, "name": "STARLINK-35389", "group": "last-30-days", "lat": 38.56775031136904, "lon": 121.17618691642518, "alt_km": 438.52159845599635, "timestamp": "2025-12-10T04:57:28.364930+00:00", "meta": {"OBJECT_NAME": "STARLINK-35389", "OBJECT_ID": "2025-259N", "EPOCH": "2025-12-09T20:00:01.999008", "MEAN_MOTION": 15.40800843, "ECCENTRICITY": 0.000101, "INCLINATION": 43.0003, "RA_OF_ASC_NODE": 64.4936, "ARG_OF_PERICENTER": 292.3397, "MEAN_ANOMALY": 221.2379, "EPHEMERIS_TYPE": 0, "CLASSIFICATION_TYPE": "U", "NORAD_CAT_ID": 66434, "ELEMENT_SET_NO": 999, "REV_AT_EPOCH": 581, "BSTAR": -0.0047935, "MEAN_MOTION_DOT": -0.00196132, "MEAN_MOTION_DDOT": 0}, "tle": {"line1": "1 66434U 25259N   25343.83335647 -.00196132  00000+0 -47935-2 0  9995", "line2": "2 66434  43.0003  64.4936 0001010 292.3397 221.2379 15.40800843  5817"}}, "geometry": {"type": "Point", "coordinates": [121.17618691642518, 38.56775031136904]}}, {"type": "Feature", "properties": {"norad_id": 66435, "name": "STARLINK-35502", "group": "last-30-days", "lat": 41.9283630255864, "lon": 136.85227007574687, "alt_km": 438.18674491206275, "timestamp": "2025-12-10T04:57:28.364943+00:00", "meta": {"OBJECT_NAME": "STARLINK-35502", "OBJECT_ID": "2025-259P", "EPOCH": "2025-12-09T20:00:01.999008", "MEAN_MOTION": 15.40728907, "ECCENTRICITY": 0.0001153, "INCLINATION": 43.0002, "RA_OF_ASC_NODE": 64.4635, "ARG_OF_PERICENTER": 287.6292, "MEAN_ANOMALY": 238.4071, "EPHEMERIS_TYPE": 0, "CLASSIFICATION_TYPE": "U", "NORAD_CAT_ID": 66435, "ELEMENT_SET_NO": 999, "REV_AT_EPOCH": 581, "BSTAR": -0.002267, "MEAN_MOTION_DOT": -0.00093934, "MEAN_MOTION_DDOT": 0}, "tle": {"line1": "1 66435U 25259P   25343.83335647 -.00093934  00000+0 -22670-2 0  9991", "line2": "2 66435  43.0002  64.4635 0001153 287.6292 238.4071 15.40728907  5811"}}, "geometry": {"type": "Point", "coordinates": [136.85227007574687, 41.9283630255864]}}, {"type": "Feature", "properties": {"norad_id": 66436, "name": "STARLINK-35501", "group": "last-30-days", "lat": 41.52848303102091, "lon": 170.3762638856605, "alt_km": 438.4239126194643, "timestamp": "2025-12-10T04:57:28.364954+00:00", "meta": {"OBJECT_NAME": "STARLINK-35501", "OBJECT_ID": "2025-259Q", "EPOCH": "2025-12-09T20:00:01.999008", "MEAN_MOTION": 15.40749957, "ECCENTRICITY": 0.0001255, "INCLINATION": 43.0001, "RA_OF_ASC_NODE": 64.4012, "ARG_OF_PERICENTER": 296.2703, "MEAN_ANOMALY": 254.631, "EPHEMERIS_TYPE": 0, "CLASSIFICATION_TYPE": "U", "NORAD_CAT_ID": 66436, "ELEMENT_SET_NO": 999, "REV_AT_EPOCH": 581, "BSTAR": -0.0031008, "MEAN_MOTION_DOT": -0.00127894, "MEAN_MOTION_DDOT": 0}, "tle": {"line1": "1 66436U 25259Q   25343.83335647 -.00127894  00000+0 -31008-2 0  9990", "line2": "2 66436  43.0001  64.4012 0001255 296.2703 254.6310 15.40749957  5810"}}, "geometry": {"type": "Point", "coordinates": [170.3762638856605, 41.52848303102091]}}, {"type": "Feature", "properties": {"norad_id": 66437, "name": "STARLINK-35474", "group": "last-30-days", "lat": 37.82528492668006, "lon": -174.20412071056916, "alt_km": 439.1707627858905, "timestamp": "2025-12-10T04:57:28.364965+00:00", "meta": {"OBJECT_NAME": "STARLINK-35474", "OBJECT_ID": "2025-259R", "EPOCH": "2025-12-09T20:00:01.999008", "MEAN_MOTION": 15.40660852, "ECCENTRICITY": 0.0001629, "INCLINATION": 43.0002, "RA_OF_ASC_NODE": 64.3715, "ARG_OF_PERICENTER": 289.7488, "MEAN_ANOMALY": 273.6145, "EPHEMERIS_TYPE": 0, "CLASSIFICATION_TYPE": "U", "NORAD_CAT_ID": 66437, "ELEMENT_SET_NO": 999, "REV_AT_EPOCH": 581, "BSTAR": 0.00074045, "MEAN_MOTION_DOT": 0.00030711, "MEAN_MOTION_DDOT": 0}, "tle": {"line1": "1 66437U 25259R   25343.83335647  .00030711  00000+0  74045-3 0  9999", "line2": "2 66437  43.0002  64.3715 0001629 289.7488 273.6145 15.40660852  5816"}}, "geometry": {"type": "Point", "coordinates": [-174.20412071056916, 37.82528492668006]}}, {"type": "Feature", "properties": {"norad_id": 66438, "name": "STARLINK-34681", "group": "last-30-days", "lat": 32.299820630897145, "lon": -160.52691922071986, "alt_km": 440.4037208902864, "timestamp": "2025-12-10T04:57:28.364976+00:00", "meta": {"OBJECT_NAME": "STARLINK-34681", "OBJECT_ID": "2025-259S", "EPOCH": "2025-12-09T20:00:01.999008", "MEAN_MOTION": 15.41311998, "ECCENTRICITY": 0.0001535, "INCLINATION": 43.0005, "RA_OF_ASC_NODE": 64.3429, "ARG_OF_PERICENTER": 302.3925, "MEAN_ANOMALY": 273.0659, "EPHEMERIS_TYPE": 0, "CLASSIFICATION_TYPE": "U", "NORAD_CAT_ID": 66438, "ELEMENT_SET_NO": 999, "REV_AT_EPOCH": 570, "BSTAR": -0.022822, "MEAN_MOTION_DOT": -0.00895079, "MEAN_MOTION_DDOT": 0}, "tle": {"line1": "1 66438U 25259S   25343.83335647 -.00895079  00000+0 -22822-1 0  9992", "line2": "2 66438  43.0005  64.3429 0001535 302.3925 273.0659 15.41311998  5703"}}, "geometry": {"type": "Point", "coordinates": [-160.52691922071986, 32.299820630897145]}}, {"type": "Feature", "properties": {"norad_id": 66439, "name": "STARLINK-35327", "group": "last-30-days", "lat": 42.972738949138, "lon": 153.57677676360586, "alt_km": 437.7008892660424, "timestamp": "2025-12-10T04:57:28.364987+00:00", "meta": {"OBJECT_NAME": "STARLINK-35327", "OBJECT_ID": "2025-259T", "EPOCH": "2025-12-09T20:00:01.999008", "MEAN_MOTION": 15.40679408, "ECCENTRICITY": 8.15e-05, "INCLINATION": 43.0003, "RA_OF_ASC_NODE": 64.4338, "ARG_OF_PERICENTER": 293.9221, "MEAN_ANOMALY": 244.487, "EPHEMERIS_TYPE": 0, "CLASSIFICATION_TYPE": "U", "NORAD_CAT_ID": 66439, "ELEMENT_SET_NO": 999, "REV_AT_EPOCH": 581, "BSTAR": 0.00085599, "MEAN_MOTION_DOT": 0.00035595, "MEAN_MOTION_DDOT": 0}, "tle": {"line1": "1 66439U 25259T   25343.83335647  .00035595  00000+0  85599-3 0  9992", "line2": "2 66439  43.0003  64.4338 0000815 293.9221 244.4870 15.40679408  5817"}}, "geometry": {"type": "Point", "coordinates": [153.57677676360586, 42.972738949138]}}, {"type": "Feature", "properties": {"norad_id": 66440, "name": "STARLINK-35405", "group": "last-30-days", "lat": 25.5459238685454, "lon": -148.6959410700693, "alt_km": 439.0836242047135, "timestamp": "2025-12-10T04:57:28.364998+00:00", "meta": {"OBJECT_NAME": "STARLINK-35405", "OBJECT_ID": "2025-259U", "EPOCH": "2025-12-09T20:00:01.999008", "MEAN_MOTION": 15.4335211, "ECCENTRICITY": 0.0001408, "INCLINATION": 43.0005, "RA_OF_ASC_NODE": 64.3179, "ARG_OF_PERICENTER": 260.4133, "MEAN_ANOMALY": 325.5924, "EPHEMERIS_TYPE": 0, "CLASSIFICATION_TYPE": "U", "NORAD_CAT_ID": 66440, "ELEMENT_SET_NO": 999, "REV_AT_EPOCH": 581, "BSTAR": -0.062821, "MEAN_MOTION_DOT": -0.02532399, "MEAN_MOTION_DDOT": 0}, "tle": {"line1": "1 66440U 25259U   25343.83335647 -.02532399  00000+0 -62821-1 0  9993", "line2": "2 66440  43.0005  64.3179 0001408 260.4133 325.5924 15.43352110  5815"}}, "geometry": {"type": "Point", "coordinates": [-148.6959410700693, 25.5459238685454]}}, {"type": "Feature", "properties": {"norad_id": 66441, "name": "STARLINK-35426", "group": "last-30-days", "lat": 18.831478394367423, "lon": -139.3330165329473, "alt_km": 436.0880340124759, "timestamp": "2025-12-10T04:57:28.365009+00:00", "meta": {"OBJECT_NAME": "STARLINK-35426", "OBJECT_ID": "2025-259V", "EPOCH": "2025-12-09T20:00:01.999008", "MEAN_MOTION": 15.44342515, "ECCENTRICITY": 0.0001237, "INCLINATION": 43.0005, "RA_OF_ASC_NODE": 64.2949, "ARG_OF_PERICENTER": 278.3649, "MEAN_ANOMALY": 316.9995, "EPHEMERIS_TYPE": 0, "CLASSIFICATION_TYPE": "U", "NORAD_CAT_ID": 66441, "ELEMENT_SET_NO": 999, "REV_AT_EPOCH": 581, "BSTAR": -0.048796, "MEAN_MOTION_DOT": -0.02047937, "MEAN_MOTION_DDOT": 0}, "tle": {"line1": "1 66441U 25259V   25343.83335647 -.02047937  00000+0 -48796-1 0  9998", "line2": "2 66441  43.0005  64.2949 0001237 278.3649 316.9995 15.44342515  5811"}}, "geometry": {"type": "Point", "coordinates": [-139.3330165329473, 18.831478394367423]}}]}